STARLINK-31322          
1 59168U 24044S   25350.07216541  .00000677  00000+0  34132-4 0  9990
2 59168  42.9999 219.5685 0001005 269.6907  90.3829 15.27575201100809
STARLINK-31329          
1 59169U 24044T   25349.99906495 -.00003332  00000+0 -11154-3 0  9995
2 59169  43.0000 219.8799 0001458 265.1616  94.9069 15.27595670100767
STARLINK-31340          
1 59170U 24044U   25349.93359339 -.00001268  00000+0 -36557-4 0  9991
2 59170  43.0022 180.4858 0001497 269.1380  90.9300 15.27566451101217
STARLINK-31344          
1 59171U 24044V   25350.32985436  .00002295  00000+0  92939-4 0  9995
2 59171  43.0007 218.0616 0001143 272.6201  87.4520 15.27569270100845
STARLINK-31348          
1 59172U 24044W   25350.23578215  .00014582  00000+0  53820-3 0  9996
2 59172  43.0016 171.5152 0001724 273.6101  86.4554 15.27589923101348
STARLINK-31289          
1 59173U 24044X   25350.05032828 -.00001350  00000+0 -39550-4 0  9998
2 59173  43.0005 219.4104 0001239   3.5385 356.5475 15.27571500100806
STARLINK-31283          
1 59174U 24044Y   25350.33337963  .00014609  00000+0  53932-3 0  9996
2 59174  43.0020 170.8650 0001415 266.2395 313.6599 15.27580909  5869
STARLINK-31439          
1 59178U 24045A   25350.28342748 -.00000046  00000+0  78464-5 0  9992
2 59178  42.9991 200.2780 0001297 282.6099  77.4607 15.27571450 36771
STARLINK-31410          
1 59179U 24045B   25349.88934042  .00007648  00000+0  28713-3 0  9995
2 59179  42.9982 205.9393 0001555 268.9395  91.1278 15.27583496100342
STARLINK-31395          
1 59180U 24045C   25349.97657200 -.00003068  00000+0 -10200-3 0  9991
2 59180  43.0007 205.7338 0001247 271.3472  88.7237 15.27579930100359
STARLINK-31486          
1 59181U 24045D   25350.02574858  .00010444  00000+0  38872-3 0  9996
2 59181  42.9979 201.7841 0001214 272.5366  87.5347 15.27563461100407
STARLINK-31411          
1 59182U 24045E   25350.31491947 -.00000183  00000+0  28857-5 0  9990
2 59182  42.9987 203.1168 0001358 270.4928  89.5768 15.27588571100414
STARLINK-31382          
1 59184U 24045G   25350.30977826  .00002825  00000+0  11219-3 0  9992
2 59184  43.0017 203.0759 0001080 273.9891  86.0837 15.27566477100416
STARLINK-31394          
1 59185U 24045H   25350.26129184 -.00002304  00000+0 -74308-4 0  9997
2 59185  42.9991 193.2006 0001238 251.2420 108.8297 15.27552751100528
STARLINK-31403          
1 59186U 24045J   25349.97543909 -.00004036  00000+0 -13718-3 0  9990
2 59186  42.9993 183.8876 0001093 266.2967  93.7760 15.27590357100545
STARLINK-31514          
1 59187U 24045K   25350.01626155 -.00003057  00000+0 -10164-3 0  9997
2 59187  43.0000 205.1696 0001234 263.9512  96.1199 15.27567093100366
