[{"OBJECT_NAME":"STARLINK-31322","OBJECT_ID":"2024-044S","EPOCH":"2025-12-16T01:43:55.091424","MEAN_MOTION":15.27575201,"ECCENTRICITY":0.00010058,"INCLINATION":42.9999,"RA_OF_ASC_NODE":219.5685,"ARG_OF_PERICENTER":269.6907,"MEAN_ANOMALY":90.3829,"EPHEMERIS_TYPE":0,"CLASSIFICATION_TYPE":"U","NORAD_CAT_ID":59168,"ELEMENT_SET_NO":999,"REV_AT_EPOCH":10080,"BSTAR":3.4131807e-5,"MEAN_MOTION_DOT":6.77e-6,"MEAN_MOTION_DDOT":0},{"OBJECT_NAME":"STARLINK-31329","OBJECT_ID":"2024-044T","EPOCH":"2025-12-15T23:58:39.211680","MEAN_MOTION":15.2759567,"ECCENTRICITY":0.00014588,"INCLINATION":43,"RA_OF_ASC_NODE":219.8799,"ARG_OF_PERICENTER":265.1616,"MEAN_ANOMALY":94.9069,"EPHEMERIS_TYPE":0,"CLASSIFICATION_TYPE":"U","NORAD_CAT_ID":59169,"ELEMENT_SET_NO":999,"REV_AT_EPOCH":10076,"BSTAR":-0.00011153858,"MEAN_MOTION_DOT":-3.332e-5,"MEAN_MOTION_DDOT":0},{"OBJECT_NAME":"STARLINK-31340","OBJECT_ID":"2024-044U","EPOCH":"2025-12-15T22:24:22.468896","MEAN_MOTION":15.27566451,"ECCENTRICITY":0.00014978,"INCLINATION":43.0022,"RA_OF_ASC_NODE":180.4858,"ARG_OF_PERICENTER":269.138,"MEAN_ANOMALY":90.93,"EPHEMERIS_TYPE":0,"CLASSIFICATION_TYPE":"U","NORAD_CAT_ID":59170,"ELEMENT_SET_NO":999,"REV_AT_EPOCH":10121,"BSTAR":-3.6557343e-5,"MEAN_MOTION_DOT":-1.268e-5,"MEAN_MOTION_DDOT":0},{"OBJECT_NAME":"STARLINK-31344","OBJECT_ID":"2024-044V","EPOCH":"2025-12-16T07:54:59.416704","MEAN_MOTION":15.2756927,"ECCENTRICITY":0.00011439,"INCLINATION":43.0007,"RA_OF_ASC_NODE":218.0616,"ARG_OF_PERICENTER":272.6201,"MEAN_ANOMALY":87.452,"EPHEMERIS_TYPE":0,"CLASSIFICATION_TYPE":"U","NORAD_CAT_ID":59171,"ELEMENT_SET_NO":999,"REV_AT_EPOCH":10084,"BSTAR":9.2939006e-5,"MEAN_MOTION_DOT":2.295e-5,"MEAN_MOTION_DDOT":0},{"OBJECT_NAME":"STARLINK-31348","OBJECT_ID":"2024-044W","EPOCH":"2025-12-16T05:39:31.577760","MEAN_MOTION":15.27589923,"ECCENTRICITY":0.00017248,"INCLINATION":43.0016,"RA_OF_ASC_NODE":171.5152,"ARG_OF_PERICENTER":273.6101,"MEAN_ANOMALY":86.4554,"EPHEMERIS_TYPE":0,"CLASSIFICATION_TYPE":"U","NORAD_CAT_ID":59172,"ELEMENT_SET_NO":999,"REV_AT_EPOCH":10134,"BSTAR":0.0005381951,"MEAN_MOTION_DOT":0.00014582,"MEAN_MOTION_DDOT":0},{"OBJECT_NAME":"STARLINK-31289","OBJECT_ID":"2024-044X","EPOCH":"2025-12-16T01:12:28.363392","MEAN_MOTION":15.275715,"ECCENTRICITY":0.00012396,"INCLINATION":43.0005,"RA_OF_ASC_NODE":219.4104,"ARG_OF_PERICENTER":3.5385,"MEAN_ANOMALY":356.5475,"EPHEMERIS_TYPE":0,"CLASSIFICATION_TYPE":"U","NORAD_CAT_ID":59173,"ELEMENT_SET_NO":999,"REV_AT_EPOCH":10080,"BSTAR":-3.9550143e-5,"MEAN_MOTION_DOT":-1.35e-5,"MEAN_MOTION_DDOT":0},{"OBJECT_NAME":"STARLINK-31283","OBJECT_ID":"2024-044Y","EPOCH":"2025-12-16T08:00:04.000032","MEAN_MOTION":15.27580909,"ECCENTRICITY":0.00014159,"INCLINATION":43.002,"RA_OF_ASC_NODE":170.865,"ARG_OF_PERICENTER":266.2395,"MEAN_ANOMALY":313.6599,"EPHEMERIS_TYPE":0,"CLASSIFICATION_TYPE":"U","NORAD_CAT_ID":59174,"ELEMENT_SET_NO":999,"REV_AT_EPOCH":586,"BSTAR":0.00053931767,"MEAN_MOTION_DOT":0.00014609,"MEAN_MOTION_DDOT":0},{"OBJECT_NAME":"STARLINK-31439","OBJECT_ID":"2024-045A","EPOCH":"2025-12-16T06:48:08.134272","MEAN_MOTION":15.2757145,"ECCENTRICITY":0.00012974,"INCLINATION":42.9991,"RA_OF_ASC_NODE":200.278,"ARG_OF_PERICENTER":282.6099,"MEAN_ANOMALY":77.4607,"EPHEMERIS_TYPE":0,"CLASSIFICATION_TYPE":"U","NORAD_CAT_ID":59178,"ELEMENT_SET_NO":999,"REV_AT_EPOCH":3677,"BSTAR":7.84637e-6,"MEAN_MOTION_DOT":-4.6e-7,"MEAN_MOTION_DDOT":0},{"OBJECT_NAME":"STARLINK-31410","OBJECT_ID":"2024-045B","EPOCH":"2025-12-15T21:20:39.012288","MEAN_MOTION":15.27583496,"ECCENTRICITY":0.00015553,"INCLINATION":42.9982,"RA_OF_ASC_NODE":205.9393,"ARG_OF_PERICENTER":268.9395,"MEAN_ANOMALY":91.1278,"EPHEMERIS_TYPE":0,"CLASSIFICATION_TYPE":"U","NORAD_CAT_ID":59179,"ELEMENT_SET_NO":999,"REV_AT_EPOCH":10034,"BSTAR":0.00028712571,"MEAN_MOTION_DOT":7.648e-5,"MEAN_MOTION_DDOT":0},{"OBJECT_NAME":"STARLINK-31395","OBJECT_ID":"2024-045C","EPOCH":"2025-12-15T23:26:15.820800","MEAN_MOTION":15.2757993,"ECCENTRICITY":0.00012479,"INCLINATION":43.0007,"RA_OF_ASC_NODE":205.7338,"ARG_OF_PERICENTER":271.3472,"MEAN_ANOMALY":88.7237,"EPHEMERIS_TYPE":0,"CLASSIFICATION_TYPE":"U","NORAD_CAT_ID":59180,"ELEMENT_SET_NO":999,"REV_AT_EPOCH":10035,"BSTAR":-0.00010199892,"MEAN_MOTION_DOT":-3.068e-5,"MEAN_MOTION_DDOT":0},{"OBJECT_NAME":"STARLINK-31486","OBJECT_ID":"2024-045D","EPOCH":"2025-12-16T00:37:04.677312","MEAN_MOTION":15.27563461,"ECCENTRICITY":0.00012141,"INCLINATION":42.9979,"RA_OF_ASC_NODE":201.7841,"ARG_OF_PERICENTER":272.5366,"MEAN_ANOMALY":87.5347,"EPHEMERIS_TYPE":0,"CLASSIFICATION_TYPE":"U","NORAD_CAT_ID":59181,"ELEMENT_SET_NO":999,"REV_AT_EPOCH":10040,"BSTAR":0.00038871878,"MEAN_MOTION_DOT":0.00010444,"MEAN_MOTION_DDOT":0},{"OBJECT_NAME":"STARLINK-31411","OBJECT_ID":"2024-045E","EPOCH":"2025-12-16T07:33:29.042208","MEAN_MOTION":15.27588571,"ECCENTRICITY":0.00013589,"INCLINATION":42.9987,"RA_OF_ASC_NODE":203.1168,"ARG_OF_PERICENTER":270.4928,"MEAN_ANOMALY":89.5768,"EPHEMERIS_TYPE":0,"CLASSIFICATION_TYPE":"U","NORAD_CAT_ID":59182,"ELEMENT_SET_NO":999,"REV_AT_EPOCH":10041,"BSTAR":2.885685e-6,"MEAN_MOTION_DOT":-1.83e-6,"MEAN_MOTION_DDOT":0},{"OBJECT_NAME":"STARLINK-31382","OBJECT_ID":"2024-045G","EPOCH":"2025-12-16T07:26:04.841664","MEAN_MOTION":15.27566477,"ECCENTRICITY":0.00010802,"INCLINATION":43.0017,"RA_OF_ASC_NODE":203.0759,"ARG_OF_PERICENTER":273.9891,"MEAN_ANOMALY":86.0837,"EPHEMERIS_TYPE":0,"CLASSIFICATION_TYPE":"U","NORAD_CAT_ID":59184,"ELEMENT_SET_NO":999,"REV_AT_EPOCH":10041,"BSTAR":0.00011218586,"MEAN_MOTION_DOT":2.825e-5,"MEAN_MOTION_DDOT":0},{"OBJECT_NAME":"STARLINK-31394","OBJECT_ID":"2024-045H","EPOCH":"2025-12-16T06:16:15.614976","MEAN_MOTION":15.27552751,"ECCENTRICITY":0.0001238,"INCLINATION":42.9991,"RA_OF_ASC_NODE":193.2006,"ARG_OF_PERICENTER":251.242,"MEAN_ANOMALY":108.8297,"EPHEMERIS_TYPE":0,"CLASSIFICATION_TYPE":"U","NORAD_CAT_ID":59185,"ELEMENT_SET_NO":999,"REV_AT_EPOCH":10052,"BSTAR":-7.4308248e-5,"MEAN_MOTION_DOT":-2.304e-5,"MEAN_MOTION_DDOT":0},{"OBJECT_NAME":"STARLINK-31403","OBJECT_ID":"2024-045J","EPOCH":"2025-12-15T23:24:37.937376","MEAN_MOTION":15.27590357,"ECCENTRICITY":0.00010933,"INCLINATION":42.9993,"RA_OF_ASC_NODE":183.8876,"ARG_OF_PERICENTER":266.2967,"MEAN_ANOMALY":93.776,"EPHEMERIS_TYPE":0,"CLASSIFICATION_TYPE":"U","NORAD_CAT_ID":59186,"ELEMENT_SET_NO":999,"REV_AT_EPOCH":10054,"BSTAR":-0.00013717529,"MEAN_MOTION_DOT":-4.036e-5,"MEAN_MOTION_DDOT":0},{"OBJECT_NAME":"STARLINK-31514","OBJECT_ID":"2024-045K","EPOCH":"2025-12-16T00:23:24.997920","MEAN_MOTION":15.27567093,"ECCENTRICITY":0.00012346,"INCLINATION":43,"RA_OF_ASC_NODE":205.1696,"ARG_OF_PERICENTER":263.9512,"MEAN_ANOMALY":96.1199,"EPHEMERIS_TYPE":0,"CLASSIFICATION_TYPE":"U","NORAD_CAT_ID":59187,"ELEMENT_SET_NO":999,"REV_AT_EPOCH":10036,"BSTAR":-0.00010164217,"MEAN_MOTION_DOT":-3.057e-5,"MEAN_MOTION_DDOT":0}]
